<gpx xmlns:ns3="http://www.garmin.com/xmlschemas/TrackPointExtension/v1" xmlns="http://www.topografix.com/GPX/1/1" xmlns:xsi="http://www.w3.org/2001/XMLSchema-instance" xmlns:ns2="http://www.garmin.com/xmlschemas/GpxExtensions/v3" creator="Garmin Connect" version="1.1" xsi:schemaLocation="http://www.topografix.com/GPX/1/1 http://www.topografix.com/GPX/11.xsd">
  <extensions>
<distance>8410.0</distance>
<average_hr></average_hr>
<average_speed>2.4679999351501465</average_speed>
<start_time>2026-10-04T09:35:22+00:00</start_time>
<end_time>2026-10-04T10:32:10+00:00</end_time>
<moving_time>3405.0</moving_time>
<elapsed_time>3412.815</elapsed_time>
</extensions>
<metadata>
    <link href="connect.garmin.com">
      <text>Garmin Connect</text>
    </link>
    <time>2026-10-04T09:35:22.000Z</time>
  </metadata>
  <trk>
    <name>跑步机</name>
    <type>treadmill_running</type>
    <trkseg/>
  </trk>
</gpx>
